stk.v.4.3 

BEGIN Ephemeris 
 
NumberOfEphemerisPoints		146 
ScenarioEpoch	    3 Sep 2020 19:27:58.557890654 
InterpolationMethod		Lagrange 
InterpolationOrder		5 
CentralBody				Earth 
CoordinateSystem			TEME 
CoordinateSystemEpoch	  3 Sep 2020 19:27:58.557890654 
DistanceUnit			Kilometers 
 
EphemerisTimePosVel 
 
       0.00000000    -401.50236393    7146.87572077       0.04750583 -0.468161597 -0.034880602  7.449442024
 END Ephemeris 
